[{"OBJECT_NAME":"OBJECT E","OBJECT_ID":"2023-072E","EPOCH":"2026-03-09T22:53:37.555296","MEAN_MOTION":15.43190689,"ECCENTRICITY":0.00038938,"INCLINATION":97.5177,"RA_OF_ASC_NODE":274.711,"ARG_OF_PERICENTER":357.3764,"MEAN_ANOMALY":2.7462,"EPHEMERIS_TYPE":0,"CLASSIFICATION_TYPE":"U","NORAD_CAT_ID":56747,"ELEMENT_SET_NO":999,"REV_AT_EPOCH":15505,"BSTAR":0.00063023453,"MEAN_MOTION_DOT":0.00027934,"MEAN_MOTION_DDOT":0},{"OBJECT_NAME":"CROCUBE","OBJECT_ID":"2024-247T","EPOCH":"2026-03-08T03:49:45.348960","MEAN_MOTION":15.41186504,"ECCENTRICITY":0.00023252,"INCLINATION":44.9727,"RA_OF_ASC_NODE":105.9036,"ARG_OF_PERICENTER":5.5541,"MEAN_ANOMALY":354.5373,"EPHEMERIS_TYPE":0,"CLASSIFICATION_TYPE":"U","NORAD_CAT_ID":62394,"ELEMENT_SET_NO":999,"REV_AT_EPOCH":6772,"BSTAR":0.0011048401,"MEAN_MOTION_DOT":0.0004678,"MEAN_MOTION_DDOT":0}]
